[{"OBJECT_NAME":"ARIANE 3 R/B","OBJECT_TYPE":"ROCKET BODY","INTLDES":"84114C","TLE_LINE1":"1 15388U 84114C   16214.64780103  .00000261  00000-0  14954-3 0  9991","TLE_LINE2":"2 15388   7.2382  83.1441 6937351 323.5121   5.0777  2.65802900208065","PERIOD":"541.754"},{"OBJECT_NAME":"LEASAT 1 PKM","OBJECT_TYPE":"ROCKET BODY","INTLDES":"84113E","TLE_LINE1":"1 15390U 84113E   16215.52145855  .00000636  00000-0  15601-3 0  9996","TLE_LINE2":"2 15390  27.0206 289.2548 4533427  60.9773 336.8841  6.37544717570745","PERIOD":"225.866"},{"OBJECT_NAME":"DELTA 1 R/B(1)","OBJECT_TYPE":"ROCKET BODY","INTLDES":"84115B","TLE_LINE1":"1 15392U 84115B   16214.75576341 +.00000208 +00000-0 +42332-4 0  9999","TLE_LINE2":"2 15392 021.5001 330.7861 1034595 294.0339 055.5239 12.45534913426363","PERIOD":"115.612"},{"OBJECT_NAME":"SL-8 R/B","OBJECT_TYPE":"ROCKET BODY","INTLDES":"84118B","TLE_LINE1":"1 15399U 84118B   16214.70458025 -.00000051  00000-0 -67595-4 0  9998","TLE_LINE2":"2 15399  82.9436 242.3579 0033021 330.1445 168.1353 13.76031884592062","PERIOD":"104.648"},{"OBJECT_NAME":"DELTA 1 R/B(2)","OBJECT_TYPE":"ROCKET BODY","INTLDES":"84115C","TLE_LINE1":"1 15402U 84115C   16215.28757947  .00000113  00000-0  38820-3 0  9994","TLE_LINE2":"2 15402  22.8788 226.0467 7154539 188.2947 145.6381  2.35336431208186","PERIOD":"611.889"},{"OBJECT_NAME":"SL-6 R/B(2)","OBJECT_TYPE":"ROCKET BODY","INTLDES":"84124H","TLE_LINE1":"1 15439U 84124H   16214.48228755 -.00000499  00000-0 -11349-1 0  9999","TLE_LINE2":"2 15439  64.3229  46.6660 6963267 271.0673  21.8070  1.96349698183884","PERIOD":"733.385"},{"OBJECT_NAME":"SL-14 R/B","OBJECT_TYPE":"ROCKET BODY","INTLDES":"85003G","TLE_LINE1":"1 15475U 85003G   16214.84856480 -.00000003 +00000-0 -83605-4 0  9996","TLE_LINE2":"2 15475 082.6137 342.1547 0037180 351.7338 121.7927 12.55152129445089","PERIOD":"114.727"},{"OBJECT_NAME":"SL-8 R/B","OBJECT_TYPE":"ROCKET BODY","INTLDES":"85006B","TLE_LINE1":"1 15483U 85006B   16215.51029693  .00000101  00000-0  43579-4 0  9994","TLE_LINE2":"2 15483  74.0439 220.0803 0020137 279.2251 249.4016 14.36130989650805","PERIOD":"100.269"},{"OBJECT_NAME":"SL-12 R/B(2)","OBJECT_TYPE":"ROCKET BODY","INTLDES":"85007D","TLE_LINE1":"1 15487U 85007D   16214.76168712 -.00000182  00000-0  00000+0 0  9998","TLE_LINE2":"2 15487  13.2902 344.9877 0019421 201.4582 141.9807  1.03023606118668","PERIOD":"1397.737"},{"OBJECT_NAME":"SL-14 R/B","OBJECT_TYPE":"ROCKET BODY","INTLDES":"85009B","TLE_LINE1":"1 15495U 85009B   16214.85485403  .00000078  00000-0  64919-5 0  9996","TLE_LINE2":"2 15495  82.5264 126.5755 0018904 306.6231  53.3245 14.83718455702611","PERIOD":"97.053"},{"OBJECT_NAME":"SL-8 R/B","OBJECT_TYPE":"ROCKET BODY","INTLDES":"85011B","TLE_LINE1":"1 15506U 85011B   16215.87722666  .00000078  00000-0  64825-4 0  9995","TLE_LINE2":"2 15506  82.9204 178.7410 0035523 212.4856 176.4260 13.76125792581562","PERIOD":"104.641"},{"OBJECT_NAME":"SL-14 R/B","OBJECT_TYPE":"ROCKET BODY","INTLDES":"85013B","TLE_LINE1":"1 15517U 85013B   16214.93399686  .00000001  00000-0 -12239-4 0  9996","TLE_LINE2":"2 15517  82.5383 335.8771 0015113  16.1473 123.2736 13.84871185591305","PERIOD":"103.980"},{"OBJECT_NAME":"ARIANE 3 R/B","OBJECT_TYPE":"ROCKET BODY","INTLDES":"85015C","TLE_LINE1":"1 15562U 85015C   16214.72450933  .00000619  00000-0  60482-3 0  9994","TLE_LINE2":"2 15562   6.8256  78.2150 6740758 103.5325 334.3029  2.94310779257030","PERIOD":"489.278"},{"OBJECT_NAME":"SL-12 R/B(2)","OBJECT_TYPE":"ROCKET BODY","INTLDES":"85016F","TLE_LINE1":"1 15581U 85016F   16214.41276605  .00000039  00000-0  00000+0 0  9996","TLE_LINE2":"2 15581  14.8641 348.7082 0027649 162.3047 184.9551  0.99400773 86072","PERIOD":"1448.680"},{"OBJECT_NAME":"SL-14 R/B","OBJECT_TYPE":"ROCKET BODY","INTLDES":"85020B","TLE_LINE1":"1 15593U 85020B   16215.59068786  .00000085  00000-0  72998-5 0  9995","TLE_LINE2":"2 15593  82.5369 200.7737 0012140  19.8112 119.8960 14.84220846697111","PERIOD":"97.020"},{"OBJECT_NAME":"ATLAS 41E R/B","OBJECT_TYPE":"ROCKET BODY","INTLDES":"85021B","TLE_LINE1":"1 15596U 85021B   16215.55587343 -.00000062  00000-0  22720-4 0  9993","TLE_LINE2":"2 15596 108.0343 250.4879 0031478  96.7007  67.8280 14.41655560647436","PERIOD":"99.885"},{"OBJECT_NAME":"SL-8 R/B","OBJECT_TYPE":"ROCKET BODY","INTLDES":"85022B","TLE_LINE1":"1 15598U 85022B   16214.88074169 -.00000002 +00000-0 -17119-4 0  9999","TLE_LINE2":"2 15598 082.9388 344.4362 0020852 282.9723 187.7475 13.76539306576295","PERIOD":"104.610"},{"OBJECT_NAME":"SL-8 R/B","OBJECT_TYPE":"ROCKET BODY","INTLDES":"85023J","TLE_LINE1":"1 15625U 85023J   16214.96741575 +.00000097 +00000-0 +10397-2 0  9993","TLE_LINE2":"2 15625 074.0514 223.8360 0146019 166.4747 215.9190 12.19908451276846","PERIOD":"118.041"},{"OBJECT_NAME":"SL-12 R/B(2)","OBJECT_TYPE":"ROCKET BODY","INTLDES":"85024D","TLE_LINE1":"1 15630U 85024D   16214.28293466 -.00000298  00000-0  00000+0 0  9997","TLE_LINE2":"2 15630  14.0260 343.3255 0016106 160.3425 185.4879  1.01232018115951","PERIOD":"1422.474"},{"OBJECT_NAME":"ANIK C1 R/B(PAM-D)","OBJECT_TYPE":"ROCKET BODY","INTLDES":"85028D","TLE_LINE1":"1 15644U 85028D   16214.84864406  .00000227  00000-0  39149-3 0  9997","TLE_LINE2":"2 15644  23.3221  46.6276 6924294 233.2250  41.7149  2.70208270287921","PERIOD":"532.922"},{"OBJECT_NAME":"SL-12 R/B(2)","OBJECT_TYPE":"ROCKET BODY","INTLDES":"84063F","TLE_LINE1":"1 15693U 84063F   16214.75866100 -.00000166 +00000-0 +00000-0 0  9996","TLE_LINE2":"2 15693 013.0599 341.3884 0018990 164.8059 185.8308 01.03289543089818","PERIOD":"1394.139"},{"OBJECT_NAME":"SL-12 R/B(2)","OBJECT_TYPE":"ROCKET BODY","INTLDES":"85037F","TLE_LINE1":"1 15702U 85037F   16215.26550006  .00000024  00000-0  00000+0 0  9992","TLE_LINE2":"2 15702  64.0887 195.9306 0032040   7.3539  64.1653  2.13321541243140","PERIOD":"675.037"},{"OBJECT_NAME":"SL-12 R/B(AUX MOTOR)","OBJECT_TYPE":"ROCKET BODY","INTLDES":"85037G","TLE_LINE1":"1 15714U 85037G   16214.88133858  .00000984  00000-0  38286-3 0  9990","TLE_LINE2":"2 15714  51.9645  32.1896 5527448 192.4260 144.8896  4.71218888506332","PERIOD":"305.590"},{"OBJECT_NAME":"SL-12 R/B(AUX MOTOR)","OBJECT_TYPE":"ROCKET BODY","INTLDES":"85037H","TLE_LINE1":"1 15715U 85037H   16214.65111468 +.00001587 +00000-0 +48398-3 0  9994","TLE_LINE2":"2 15715 052.0068 324.3476 5232768 100.5651 319.9427 05.19733314429985","PERIOD":"277.065"},{"OBJECT_NAME":"SL-6 R/B(2)","OBJECT_TYPE":"ROCKET BODY","INTLDES":"85040D","TLE_LINE1":"1 15741U 85040D   16214.87672918 -.00001037  00000-0  14048-1 0  9997","TLE_LINE2":"2 15741  64.5353 355.2391 7004228 271.9017  96.6984  1.96830510224007","PERIOD":"731.593"},{"OBJECT_NAME":"SL-8 R/B","OBJECT_TYPE":"ROCKET BODY","INTLDES":"85041B","TLE_LINE1":"1 15752U 85041B   16215.51389190  .00000079  00000-0  69023-4 0  9999","TLE_LINE2":"2 15752  82.9499 181.6670 0022881 298.6164 200.7153 13.73095403562139","PERIOD":"104.872"},{"OBJECT_NAME":"SL-12 R/B(2)","OBJECT_TYPE":"ROCKET BODY","INTLDES":"85042D","TLE_LINE1":"1 15772U 85042D   16215.50303616 -.00000064  00000-0 -73525-5 0  9999","TLE_LINE2":"2 15772  71.1084 288.1234 0035501 182.0910 267.6443 14.21177518616178","PERIOD":"101.324"},{"OBJECT_NAME":"SL-12 R/B(AUX MOTOR)","OBJECT_TYPE":"ROCKET BODY","INTLDES":"85042E","TLE_LINE1":"1 15773U 85042E   16215.56305334 -.00000057  00000-0  11744-4 0  9990","TLE_LINE2":"2 15773  66.5895 358.8905 0040047 236.0373 192.8380 14.26876586621701","PERIOD":"100.919"},{"OBJECT_NAME":"SL-12 R/B(AUX MOTOR)","OBJECT_TYPE":"ROCKET BODY","INTLDES":"85042F","TLE_LINE1":"1 15774U 85042F   16214.95719863 -.00000043 +00000-0 +18610-4 0  9993","TLE_LINE2":"2 15774 066.5872 069.3129 0032786 286.8216 169.8449 14.23778120619539","PERIOD":"101.139"},{"OBJECT_NAME":"SL-14 R/B","OBJECT_TYPE":"ROCKET BODY","INTLDES":"85047B","TLE_LINE1":"1 15822U 85047B   16215.76563852 -.00000016  00000-0  10047-4 0  9993","TLE_LINE2":"2 15822  73.6275 315.2985 0024966 182.4918 346.0151 12.41258590411118","PERIOD":"116.011"},{"OBJECT_NAME":"SL-6 R/B(2)","OBJECT_TYPE":"ROCKET BODY","INTLDES":"85049D","TLE_LINE1":"1 15830U 85049D   16215.11484082 -.00000743  00000-0  00000+0 0  9990","TLE_LINE2":"2 15830  67.3672  52.1228 6301527  71.9581 192.7203  1.98682029225801","PERIOD":"724.776"},{"OBJECT_NAME":"MORELOS 1 R/B(PAM-D)","OBJECT_TYPE":"ROCKET BODY","INTLDES":"85048F","TLE_LINE1":"1 15832U 85048F   16215.51360037 -.00000172  00000-0  13042-3 0  9998","TLE_LINE2":"2 15832  25.6514 340.3514 7154964   5.3806 359.1761  2.36678342210255","PERIOD":"608.420"},{"OBJECT_NAME":"ARABSAT 1B R/B(PAM-D)","OBJECT_TYPE":"ROCKET BODY","INTLDES":"85048G","TLE_LINE1":"1 15836U 85048G   16214.44163433 +.00000090 +00000-0 +36222-3 0  9997","TLE_LINE2":"2 15836 026.9280 325.9372 7125454 248.8144 026.0137 02.39678500023488","PERIOD":"600.804"},{"OBJECT_NAME":"TELSTAR 3D R/B(PAM-D)","OBJECT_TYPE":"ROCKET BODY","INTLDES":"85048H","TLE_LINE1":"1 15837U 85048H   16214.44055366 -.00000128 +00000-0 +32463-3 0  9999","TLE_LINE2":"2 15837 025.3944 177.5109 7210372 351.6324 000.7177 02.27034829201999","PERIOD":"634.263"},{"OBJECT_NAME":"ATLAS CENTAUR R/B","OBJECT_TYPE":"ROCKET BODY","INTLDES":"85055B","TLE_LINE1":"1 15874U 85055B   16214.18497100 +.00001218 +00000-0 +47619-3 0  9994","TLE_LINE2":"2 15874 023.1571 276.4230 6586172 236.7627 042.8864 03.18154190320254","PERIOD":"452.610"},{"OBJECT_NAME":"ARIANE 1 R/B","OBJECT_TYPE":"ROCKET BODY","INTLDES":"85056B","TLE_LINE1":"1 15876U 85056B   16215.23468863  .00000672  00000-0  79388-3 0  9999","TLE_LINE2":"2 15876   8.1312  45.6967 6302183  46.9312 351.0916  3.50688113272763","PERIOD":"410.621"},{"OBJECT_NAME":"SL-14 R/B","OBJECT_TYPE":"ROCKET BODY","INTLDES":"85058B","TLE_LINE1":"1 15890U 85058B   16215.50041124  .00000074  00000-0  60962-5 0  9990","TLE_LINE2":"2 15890  82.5256 198.8735 0020654 187.3310 292.5666 14.83271469677678","PERIOD":"97.082"}]